STARLINK-37156          
1 68263U 26055B   26091.91668981 -.01184649  00000+0 -53451-2 0  9993
2 68263  53.1573 220.9193 0000785  59.4686 341.8935 15.85723227  3362
STARLINK-37163          
1 68264U 26055C   26091.91668981 -.01197822  00000+0 -53944-2 0  9998
2 68264  53.1575 220.9010 0000831  60.2573 349.5085 15.85788474  3366
STARLINK-37133          
1 68265U 26055D   26091.91668981 -.01190025  00000+0 -53658-2 0  9999
2 68265  53.1574 220.9101 0000785  58.7731 346.8368 15.85748070  3365
STARLINK-37042          
1 68266U 26055E   26091.91668981 -.01205613  00000+0 -54413-2 0  9990
2 68266  53.1574 220.8917 0000866  58.7222 355.7649 15.85760093  3365
STARLINK-37103          
1 68267U 26055F   26091.91668981 -.01212254  00000+0 -54713-2 0  9993
2 68267  53.1577 220.8824 0000774  62.5973 356.2791 15.85774637  3363
STARLINK-36999          
1 68268U 26055G   26091.91668981 -.01217528  00000+0 -54875-2 0  9992
2 68268  53.1575 220.8738 0000795  61.8973   1.1732 15.85813527  3364
STARLINK-36962          
1 68269U 26055H   26091.91668981 -.01229658  00000+0 -55397-2 0  9990
2 68269  53.1577 220.8648 0000865  61.8112   5.5657 15.85847453  3369
STARLINK-37028          
1 68270U 26055J   26091.91668981 -.01326504  00000+0 -60762-2 0  9992
2 68270  53.1577 220.8425 0000911  59.2394  18.6177 15.85712691  3366
STARLINK-37029          
1 68271U 26055K   26091.91668981 -.01273203  00000+0 -58113-2 0  9997
2 68271  53.1575 220.8520 0000866  61.2287  12.2435 15.85672536  3364
STARLINK-36974          
1 68272U 26055L   26091.91668981 -.01402294  00000+0 -64852-2 0  9999
2 68272  53.1575 220.8325 0000864  59.7330  23.0042 15.85682344  3369
STARLINK-37019          
1 68273U 26055M   26091.91668981 -.01408305  00000+0 -65065-2 0  9996
2 68273  53.1577 220.8232 0000862  60.9027  25.9758 15.85715741  3367
STARLINK-37129          
1 68274U 26055N   26091.91668981 -.01421668  00000+0 -65788-2 0  9996
2 68274  53.1574 220.8144 0000902  60.1349  31.1467 15.85712241  3369
