CCSDS_OMM_VERS = 2.0
CREATION_DATE  = 
ORIGINATOR     = 

OBJECT_NAME    = STARLINK-37156
OBJECT_ID      = 2026-055B
CENTER_NAME    = EARTH
REF_FRAME      = TEME
TIME_SYSTEM    = UTC
MEAN_ELEMENT_THEORY = SGP/SGP4

EPOCH          = 2026-04-01T22:00:01.999584
MEAN_MOTION    = 15.85723227
ECCENTRICITY   = .00007856
INCLINATION    = 53.1573
RA_OF_ASC_NODE = 220.9193
ARG_OF_PERICENTER = 59.4686
MEAN_ANOMALY   = 341.8935

EPHEMERIS_TYPE = 0
CLASSIFICATION_TYPE = U
NORAD_CAT_ID   = 68263
ELEMENT_SET_NO = 999
REV_AT_EPOCH   = 336
BSTAR          = -.53451481E-2
MEAN_MOTION_DOT = -.1184649E-1
MEAN_MOTION_DDOT = 0

CCSDS_OMM_VERS = 2.0
CREATION_DATE  = 
ORIGINATOR     = 

OBJECT_NAME    = STARLINK-37163
OBJECT_ID      = 2026-055C
CENTER_NAME    = EARTH
REF_FRAME      = TEME
TIME_SYSTEM    = UTC
MEAN_ELEMENT_THEORY = SGP/SGP4

EPOCH          = 2026-04-01T22:00:01.999584
MEAN_MOTION    = 15.85788474
ECCENTRICITY   = .00008314
INCLINATION    = 53.1575
RA_OF_ASC_NODE = 220.9010
ARG_OF_PERICENTER = 60.2573
MEAN_ANOMALY   = 349.5085

EPHEMERIS_TYPE = 0
CLASSIFICATION_TYPE = U
NORAD_CAT_ID   = 68264
ELEMENT_SET_NO = 999
REV_AT_EPOCH   = 336
BSTAR          = -.53944207E-2
MEAN_MOTION_DOT = -.1197822E-1
MEAN_MOTION_DDOT = 0

CCSDS_OMM_VERS = 2.0
CREATION_DATE  = 
ORIGINATOR     = 

OBJECT_NAME    = STARLINK-37133
OBJECT_ID      = 2026-055D
CENTER_NAME    = EARTH
REF_FRAME      = TEME
TIME_SYSTEM    = UTC
MEAN_ELEMENT_THEORY = SGP/SGP4

EPOCH          = 2026-04-01T22:00:01.999584
MEAN_MOTION    = 15.85748070
ECCENTRICITY   = .00007853
INCLINATION    = 53.1574
RA_OF_ASC_NODE = 220.9101
ARG_OF_PERICENTER = 58.7731
MEAN_ANOMALY   = 346.8368

EPHEMERIS_TYPE = 0
CLASSIFICATION_TYPE = U
NORAD_CAT_ID   = 68265
ELEMENT_SET_NO = 999
REV_AT_EPOCH   = 336
BSTAR          = -.53658037E-2
MEAN_MOTION_DOT = -.1190025E-1
MEAN_MOTION_DDOT = 0

CCSDS_OMM_VERS = 2.0
CREATION_DATE  = 
ORIGINATOR     = 

OBJECT_NAME    = STARLINK-37042
OBJECT_ID      = 2026-055E
CENTER_NAME    = EARTH
REF_FRAME      = TEME
TIME_SYSTEM    = UTC
MEAN_ELEMENT_THEORY = SGP/SGP4

EPOCH          = 2026-04-01T22:00:01.999584
MEAN_MOTION    = 15.85760093
ECCENTRICITY   = .00008663
INCLINATION    = 53.1574
RA_OF_ASC_NODE = 220.8917
ARG_OF_PERICENTER = 58.7222
MEAN_ANOMALY   = 355.7649

EPHEMERIS_TYPE = 0
CLASSIFICATION_TYPE = U
NORAD_CAT_ID   = 68266
ELEMENT_SET_NO = 999
REV_AT_EPOCH   = 336
BSTAR          = -.54412947E-2
MEAN_MOTION_DOT = -.1205613E-1
MEAN_MOTION_DDOT = 0

CCSDS_OMM_VERS = 2.0
CREATION_DATE  = 
ORIGINATOR     = 

OBJECT_NAME    = STARLINK-37103
OBJECT_ID      = 2026-055F
CENTER_NAME    = EARTH
REF_FRAME      = TEME
TIME_SYSTEM    = UTC
MEAN_ELEMENT_THEORY = SGP/SGP4

EPOCH          = 2026-04-01T22:00:01.999584
MEAN_MOTION    = 15.85774637
ECCENTRICITY   = .00007748
INCLINATION    = 53.1577
RA_OF_ASC_NODE = 220.8824
ARG_OF_PERICENTER = 62.5973
MEAN_ANOMALY   = 356.2791

EPHEMERIS_TYPE = 0
CLASSIFICATION_TYPE = U
NORAD_CAT_ID   = 68267
ELEMENT_SET_NO = 999
REV_AT_EPOCH   = 336
BSTAR          = -.54713206E-2
MEAN_MOTION_DOT = -.1212254E-1
MEAN_MOTION_DDOT = 0

CCSDS_OMM_VERS = 2.0
CREATION_DATE  = 
ORIGINATOR     = 

OBJECT_NAME    = STARLINK-36999
OBJECT_ID      = 2026-055G
CENTER_NAME    = EARTH
REF_FRAME      = TEME
TIME_SYSTEM    = UTC
MEAN_ELEMENT_THEORY = SGP/SGP4

EPOCH          = 2026-04-01T22:00:01.999584
MEAN_MOTION    = 15.85813527
ECCENTRICITY   = .00007952
INCLINATION    = 53.1575
RA_OF_ASC_NODE = 220.8738
ARG_OF_PERICENTER = 61.8973
MEAN_ANOMALY   = 1.1732

EPHEMERIS_TYPE = 0
CLASSIFICATION_TYPE = U
NORAD_CAT_ID   = 68268
ELEMENT_SET_NO = 999
REV_AT_EPOCH   = 336
BSTAR          = -.5487546E-2
MEAN_MOTION_DOT = -.1217528E-1
MEAN_MOTION_DDOT = 0

CCSDS_OMM_VERS = 2.0
CREATION_DATE  = 
ORIGINATOR     = 

OBJECT_NAME    = STARLINK-36962
OBJECT_ID      = 2026-055H
CENTER_NAME    = EARTH
REF_FRAME      = TEME
TIME_SYSTEM    = UTC
MEAN_ELEMENT_THEORY = SGP/SGP4

EPOCH          = 2026-04-01T22:00:01.999584
MEAN_MOTION    = 15.85847453
ECCENTRICITY   = .00008656
INCLINATION    = 53.1577
RA_OF_ASC_NODE = 220.8648
ARG_OF_PERICENTER = 61.8112
MEAN_ANOMALY   = 5.5657

EPHEMERIS_TYPE = 0
CLASSIFICATION_TYPE = U
NORAD_CAT_ID   = 68269
ELEMENT_SET_NO = 999
REV_AT_EPOCH   = 336
BSTAR          = -.55396705E-2
MEAN_MOTION_DOT = -.1229658E-1
MEAN_MOTION_DDOT = 0

CCSDS_OMM_VERS = 2.0
CREATION_DATE  = 
ORIGINATOR     = 

OBJECT_NAME    = STARLINK-37028
OBJECT_ID      = 2026-055J
CENTER_NAME    = EARTH
REF_FRAME      = TEME
TIME_SYSTEM    = UTC
MEAN_ELEMENT_THEORY = SGP/SGP4

EPOCH          = 2026-04-01T22:00:01.999584
MEAN_MOTION    = 15.85712691
ECCENTRICITY   = .00009111
INCLINATION    = 53.1577
RA_OF_ASC_NODE = 220.8425
ARG_OF_PERICENTER = 59.2394
MEAN_ANOMALY   = 18.6177

EPHEMERIS_TYPE = 0
CLASSIFICATION_TYPE = U
NORAD_CAT_ID   = 68270
ELEMENT_SET_NO = 999
REV_AT_EPOCH   = 336
BSTAR          = -.60762194E-2
MEAN_MOTION_DOT = -.1326504E-1
MEAN_MOTION_DDOT = 0

CCSDS_OMM_VERS = 2.0
CREATION_DATE  = 
ORIGINATOR     = 

OBJECT_NAME    = STARLINK-37029
OBJECT_ID      = 2026-055K
CENTER_NAME    = EARTH
REF_FRAME      = TEME
TIME_SYSTEM    = UTC
MEAN_ELEMENT_THEORY = SGP/SGP4

EPOCH          = 2026-04-01T22:00:01.999584
MEAN_MOTION    = 15.85672536
ECCENTRICITY   = .0000866
INCLINATION    = 53.1575
RA_OF_ASC_NODE = 220.8520
ARG_OF_PERICENTER = 61.2287
MEAN_ANOMALY   = 12.2435

EPHEMERIS_TYPE = 0
CLASSIFICATION_TYPE = U
NORAD_CAT_ID   = 68271
ELEMENT_SET_NO = 999
REV_AT_EPOCH   = 336
BSTAR          = -.58112972E-2
MEAN_MOTION_DOT = -.1273203E-1
MEAN_MOTION_DDOT = 0

CCSDS_OMM_VERS = 2.0
CREATION_DATE  = 
ORIGINATOR     = 

OBJECT_NAME    = STARLINK-36974
OBJECT_ID      = 2026-055L
CENTER_NAME    = EARTH
REF_FRAME      = TEME
TIME_SYSTEM    = UTC
MEAN_ELEMENT_THEORY = SGP/SGP4

EPOCH          = 2026-04-01T22:00:01.999584
MEAN_MOTION    = 15.85682344
ECCENTRICITY   = .00008649
INCLINATION    = 53.1575
RA_OF_ASC_NODE = 220.8325
ARG_OF_PERICENTER = 59.7330
MEAN_ANOMALY   = 23.0042

EPHEMERIS_TYPE = 0
CLASSIFICATION_TYPE = U
NORAD_CAT_ID   = 68272
ELEMENT_SET_NO = 999
REV_AT_EPOCH   = 336
BSTAR          = -.64852033E-2
MEAN_MOTION_DOT = -.1402294E-1
MEAN_MOTION_DDOT = 0

CCSDS_OMM_VERS = 2.0
CREATION_DATE  = 
ORIGINATOR     = 

OBJECT_NAME    = STARLINK-37019
OBJECT_ID      = 2026-055M
CENTER_NAME    = EARTH
REF_FRAME      = TEME
TIME_SYSTEM    = UTC
MEAN_ELEMENT_THEORY = SGP/SGP4

EPOCH          = 2026-04-01T22:00:01.999584
MEAN_MOTION    = 15.85715741
ECCENTRICITY   = .00008628
INCLINATION    = 53.1577
RA_OF_ASC_NODE = 220.8232
ARG_OF_PERICENTER = 60.9027
MEAN_ANOMALY   = 25.9758

EPHEMERIS_TYPE = 0
CLASSIFICATION_TYPE = U
NORAD_CAT_ID   = 68273
ELEMENT_SET_NO = 999
REV_AT_EPOCH   = 336
BSTAR          = -.65065473E-2
MEAN_MOTION_DOT = -.1408305E-1
MEAN_MOTION_DDOT = 0

CCSDS_OMM_VERS = 2.0
CREATION_DATE  = 
ORIGINATOR     = 

OBJECT_NAME    = STARLINK-37129
OBJECT_ID      = 2026-055N
CENTER_NAME    = EARTH
REF_FRAME      = TEME
TIME_SYSTEM    = UTC
MEAN_ELEMENT_THEORY = SGP/SGP4

EPOCH          = 2026-04-01T22:00:01.999584
MEAN_MOTION    = 15.85712241
ECCENTRICITY   = .00009025
INCLINATION    = 53.1574
RA_OF_ASC_NODE = 220.8144
ARG_OF_PERICENTER = 60.1349
MEAN_ANOMALY   = 31.1467

EPHEMERIS_TYPE = 0
CLASSIFICATION_TYPE = U
NORAD_CAT_ID   = 68274
ELEMENT_SET_NO = 999
REV_AT_EPOCH   = 336
BSTAR          = -.65787574E-2
MEAN_MOTION_DOT = -.1421668E-1
MEAN_MOTION_DDOT = 0

